FENGYUN 1C DEB          
1 30630U 99025ANM 17345.78620649  .00000355  00000-0  21262-3 0  9998
2 30630  98.9526  78.6278 0029576  73.2682  51.2028 14.13154473558603
